[{"OBJECT_NAME":"STARLINK-4048","OBJECT_ID":"2022-062K","EPOCH":"2026-02-23T19:53:16.015776","MEAN_MOTION":15.08837637,"ECCENTRICITY":0.0001442,"INCLINATION":53.2158,"RA_OF_ASC_NODE":96.3449,"ARG_OF_PERICENTER":86.2822,"MEAN_ANOMALY":273.8335,"EPHEMERIS_TYPE":0,"CLASSIFICATION_TYPE":"U","NORAD_CAT_ID":52839,"ELEMENT_SET_NO":999,"REV_AT_EPOCH":20369,"BSTAR":8.2762e-6,"MEAN_MOTION_DOT":-1.56e-6,"MEAN_MOTION_DDOT":0},{"OBJECT_NAME":"STARLINK-4049","OBJECT_ID":"2022-062L","EPOCH":"2026-02-23T12:17:32.294112","MEAN_MOTION":15.08847922,"ECCENTRICITY":0.00014001,"INCLINATION":53.2166,"RA_OF_ASC_NODE":97.8814,"ARG_OF_PERICENTER":89.461,"MEAN_ANOMALY":270.6542,"EPHEMERIS_TYPE":0,"CLASSIFICATION_TYPE":"U","NORAD_CAT_ID":52840,"ELEMENT_SET_NO":999,"REV_AT_EPOCH":20364,"BSTAR":6.0784307e-5,"MEAN_MOTION_DOT":6.8e-6,"MEAN_MOTION_DDOT":0},{"OBJECT_NAME":"STARLINK-4065","OBJECT_ID":"2022-062M","EPOCH":"2026-02-23T19:37:21.446976","MEAN_MOTION":15.08841153,"ECCENTRICITY":0.0001204,"INCLINATION":53.2164,"RA_OF_ASC_NODE":96.3928,"ARG_OF_PERICENTER":85.9201,"MEAN_ANOMALY":274.1929,"EPHEMERIS_TYPE":0,"CLASSIFICATION_TYPE":"U","NORAD_CAT_ID":52841,"ELEMENT_SET_NO":999,"REV_AT_EPOCH":20369,"BSTAR":9.6618e-5,"MEAN_MOTION_DOT":1.25e-5,"MEAN_MOTION_DDOT":0},{"OBJECT_NAME":"STARLINK-4046","OBJECT_ID":"2022-062N","EPOCH":"2026-02-23T12:01:36.862176","MEAN_MOTION":15.08841948,"ECCENTRICITY":0.00014753,"INCLINATION":53.2168,"RA_OF_ASC_NODE":97.7386,"ARG_OF_PERICENTER":87.6894,"MEAN_ANOMALY":272.4267,"EPHEMERIS_TYPE":0,"CLASSIFICATION_TYPE":"U","NORAD_CAT_ID":52842,"ELEMENT_SET_NO":999,"REV_AT_EPOCH":20364,"BSTAR":5.4075344e-5,"MEAN_MOTION_DOT":5.73e-6,"MEAN_MOTION_DDOT":0},{"OBJECT_NAME":"STARLINK-4188","OBJECT_ID":"2022-062P","EPOCH":"2026-02-23T19:26:45.761568","MEAN_MOTION":15.08832451,"ECCENTRICITY":0.0001057,"INCLINATION":53.2162,"RA_OF_ASC_NODE":96.4286,"ARG_OF_PERICENTER":63.5339,"MEAN_ANOMALY":296.5762,"EPHEMERIS_TYPE":0,"CLASSIFICATION_TYPE":"U","NORAD_CAT_ID":52843,"ELEMENT_SET_NO":999,"REV_AT_EPOCH":20369,"BSTAR":5.7071e-5,"MEAN_MOTION_DOT":6.2e-6,"MEAN_MOTION_DDOT":0},{"OBJECT_NAME":"STARLINK-4208","OBJECT_ID":"2022-062Q","EPOCH":"2026-02-23T19:47:57.619680","MEAN_MOTION":15.08835314,"ECCENTRICITY":0.0001287,"INCLINATION":53.2171,"RA_OF_ASC_NODE":96.3623,"ARG_OF_PERICENTER":87.4848,"MEAN_ANOMALY":272.6292,"EPHEMERIS_TYPE":0,"CLASSIFICATION_TYPE":"U","NORAD_CAT_ID":52844,"ELEMENT_SET_NO":999,"REV_AT_EPOCH":20369,"BSTAR":2.7307e-5,"MEAN_MOTION_DOT":1.47e-6,"MEAN_MOTION_DDOT":0},{"OBJECT_NAME":"STARLINK-4168","OBJECT_ID":"2022-062R","EPOCH":"2026-02-23T19:32:06.003168","MEAN_MOTION":15.08829777,"ECCENTRICITY":0.0001323,"INCLINATION":53.2163,"RA_OF_ASC_NODE":96.4776,"ARG_OF_PERICENTER":89.8548,"MEAN_ANOMALY":270.2596,"EPHEMERIS_TYPE":0,"CLASSIFICATION_TYPE":"U","NORAD_CAT_ID":52845,"ELEMENT_SET_NO":999,"REV_AT_EPOCH":20369,"BSTAR":-2.4131e-5,"MEAN_MOTION_DOT":-6.72e-6,"MEAN_MOTION_DDOT":0},{"OBJECT_NAME":"STARLINK-4212","OBJECT_ID":"2022-062S","EPOCH":"2026-02-23T19:33:26.656704","MEAN_MOTION":15.08833966,"ECCENTRICITY":0.0001335,"INCLINATION":53.217,"RA_OF_ASC_NODE":96.416,"ARG_OF_PERICENTER":89.4807,"MEAN_ANOMALY":270.6338,"EPHEMERIS_TYPE":0,"CLASSIFICATION_TYPE":"U","NORAD_CAT_ID":52846,"ELEMENT_SET_NO":999,"REV_AT_EPOCH":20369,"BSTAR":-8.2767e-7,"MEAN_MOTION_DOT":-3.01e-6,"MEAN_MOTION_DDOT":0},{"OBJECT_NAME":"STARLINK-4206","OBJECT_ID":"2022-062T","EPOCH":"2026-02-23T19:16:09.632064","MEAN_MOTION":15.08839127,"ECCENTRICITY":8.49e-5,"INCLINATION":53.2168,"RA_OF_ASC_NODE":96.464,"ARG_OF_PERICENTER":87.4052,"MEAN_ANOMALY":272.7037,"EPHEMERIS_TYPE":0,"CLASSIFICATION_TYPE":"U","NORAD_CAT_ID":52847,"ELEMENT_SET_NO":999,"REV_AT_EPOCH":20369,"BSTAR":4.0798e-5,"MEAN_MOTION_DOT":3.62e-6,"MEAN_MOTION_DDOT":0},{"OBJECT_NAME":"STARLINK-4202","OBJECT_ID":"2022-062U","EPOCH":"2026-02-23T19:42:39.710016","MEAN_MOTION":15.08831256,"ECCENTRICITY":0.0001128,"INCLINATION":53.2171,"RA_OF_ASC_NODE":96.3784,"ARG_OF_PERICENTER":90.9718,"MEAN_ANOMALY":269.1403,"EPHEMERIS_TYPE":0,"CLASSIFICATION_TYPE":"U","NORAD_CAT_ID":52848,"ELEMENT_SET_NO":999,"REV_AT_EPOCH":20369,"BSTAR":0.00012361,"MEAN_MOTION_DOT":1.679e-5,"MEAN_MOTION_DDOT":0},{"OBJECT_NAME":"STARLINK-4197","OBJECT_ID":"2022-062V","EPOCH":"2026-02-23T19:06:53.553888","MEAN_MOTION":15.08841704,"ECCENTRICITY":0.0001306,"INCLINATION":53.2175,"RA_OF_ASC_NODE":86.488,"ARG_OF_PERICENTER":81.3718,"MEAN_ANOMALY":278.7422,"EPHEMERIS_TYPE":0,"CLASSIFICATION_TYPE":"U","NORAD_CAT_ID":52849,"ELEMENT_SET_NO":999,"REV_AT_EPOCH":20382,"BSTAR":-2.7921e-5,"MEAN_MOTION_DOT":-7.32e-6,"MEAN_MOTION_DDOT":0},{"OBJECT_NAME":"STARLINK-4187","OBJECT_ID":"2022-062W","EPOCH":"2026-02-23T20:10:35.330880","MEAN_MOTION":15.08848133,"ECCENTRICITY":0.0001306,"INCLINATION":53.2164,"RA_OF_ASC_NODE":96.6483,"ARG_OF_PERICENTER":86.3504,"MEAN_ANOMALY":273.7637,"EPHEMERIS_TYPE":0,"CLASSIFICATION_TYPE":"U","NORAD_CAT_ID":52850,"ELEMENT_SET_NO":999,"REV_AT_EPOCH":20369,"BSTAR":7.0826e-6,"MEAN_MOTION_DOT":-1.75e-6,"MEAN_MOTION_DDOT":0},{"OBJECT_NAME":"STARLINK-3809","OBJECT_ID":"2022-062X","EPOCH":"2026-02-23T19:01:35.460192","MEAN_MOTION":15.08837404,"ECCENTRICITY":0.0001355,"INCLINATION":53.2166,"RA_OF_ASC_NODE":86.5044,"ARG_OF_PERICENTER":89.7165,"MEAN_ANOMALY":270.3982,"EPHEMERIS_TYPE":0,"CLASSIFICATION_TYPE":"U","NORAD_CAT_ID":52851,"ELEMENT_SET_NO":999,"REV_AT_EPOCH":20382,"BSTAR":8.6258e-6,"MEAN_MOTION_DOT":-1.51e-6,"MEAN_MOTION_DDOT":0},{"OBJECT_NAME":"STARLINK-4184","OBJECT_ID":"2022-062Y","EPOCH":"2026-02-23T19:12:11.358144","MEAN_MOTION":15.08842724,"ECCENTRICITY":0.0001299,"INCLINATION":53.2175,"RA_OF_ASC_NODE":86.4721,"ARG_OF_PERICENTER":86.6793,"MEAN_ANOMALY":273.4348,"EPHEMERIS_TYPE":0,"CLASSIFICATION_TYPE":"U","NORAD_CAT_ID":52852,"ELEMENT_SET_NO":999,"REV_AT_EPOCH":20382,"BSTAR":7.4419e-5,"MEAN_MOTION_DOT":8.97e-6,"MEAN_MOTION_DDOT":0},{"OBJECT_NAME":"STARLINK-4189","OBJECT_ID":"2022-062Z","EPOCH":"2026-02-23T18:47:05.059680","MEAN_MOTION":15.0884022,"ECCENTRICITY":0.0002258,"INCLINATION":53.2183,"RA_OF_ASC_NODE":86.5285,"ARG_OF_PERICENTER":91.6728,"MEAN_ANOMALY":268.4523,"EPHEMERIS_TYPE":0,"CLASSIFICATION_TYPE":"U","NORAD_CAT_ID":52853,"ELEMENT_SET_NO":999,"REV_AT_EPOCH":20382,"BSTAR":1.6925e-5,"MEAN_MOTION_DOT":-1.9e-7,"MEAN_MOTION_DDOT":0},{"OBJECT_NAME":"STARLINK-4204","OBJECT_ID":"2022-062AA","EPOCH":"2026-02-23T18:56:17.722464","MEAN_MOTION":15.08836241,"ECCENTRICITY":0.0001301,"INCLINATION":53.2161,"RA_OF_ASC_NODE":86.521,"ARG_OF_PERICENTER":90.2811,"MEAN_ANOMALY":269.8331,"EPHEMERIS_TYPE":0,"CLASSIFICATION_TYPE":"U","NORAD_CAT_ID":52854,"ELEMENT_SET_NO":999,"REV_AT_EPOCH":20382,"BSTAR":4.2313e-5,"MEAN_MOTION_DOT":3.86e-6,"MEAN_MOTION_DDOT":0},{"OBJECT_NAME":"STARLINK-4209","OBJECT_ID":"2022-062AB","EPOCH":"2026-02-23T18:40:23.446560","MEAN_MOTION":15.0884056,"ECCENTRICITY":0.0001158,"INCLINATION":53.217,"RA_OF_ASC_NODE":86.5763,"ARG_OF_PERICENTER":82.2728,"MEAN_ANOMALY":277.8396,"EPHEMERIS_TYPE":0,"CLASSIFICATION_TYPE":"U","NORAD_CAT_ID":52855,"ELEMENT_SET_NO":999,"REV_AT_EPOCH":20382,"BSTAR":2.2744e-5,"MEAN_MOTION_DOT":7.4e-7,"MEAN_MOTION_DDOT":0},{"OBJECT_NAME":"STARLINK-4201","OBJECT_ID":"2022-062AC","EPOCH":"2026-02-23T18:52:22.959840","MEAN_MOTION":15.08831943,"ECCENTRICITY":0.0001346,"INCLINATION":53.2164,"RA_OF_ASC_NODE":86.5826,"ARG_OF_PERICENTER":92.0429,"MEAN_ANOMALY":268.0717,"EPHEMERIS_TYPE":0,"CLASSIFICATION_TYPE":"U","NORAD_CAT_ID":52856,"ELEMENT_SET_NO":999,"REV_AT_EPOCH":20382,"BSTAR":5.7955e-5,"MEAN_MOTION_DOT":6.34e-6,"MEAN_MOTION_DDOT":0},{"OBJECT_NAME":"STARLINK-4199","OBJECT_ID":"2022-062AD","EPOCH":"2026-02-23T12:08:10.119552","MEAN_MOTION":15.08894919,"ECCENTRICITY":0.00011124,"INCLINATION":53.2171,"RA_OF_ASC_NODE":87.7959,"ARG_OF_PERICENTER":98.6657,"MEAN_ANOMALY":261.4461,"EPHEMERIS_TYPE":0,"CLASSIFICATION_TYPE":"U","NORAD_CAT_ID":52857,"ELEMENT_SET_NO":999,"REV_AT_EPOCH":20378,"BSTAR":0.00040664245,"MEAN_MOTION_DOT":6.199e-5,"MEAN_MOTION_DDOT":0},{"OBJECT_NAME":"STARLINK-4198","OBJECT_ID":"2022-062AE","EPOCH":"2026-02-23T18:45:41.700096","MEAN_MOTION":15.08836516,"ECCENTRICITY":0.00013,"INCLINATION":53.2155,"RA_OF_ASC_NODE":86.5824,"ARG_OF_PERICENTER":84.3821,"MEAN_ANOMALY":275.7319,"EPHEMERIS_TYPE":0,"CLASSIFICATION_TYPE":"U","NORAD_CAT_ID":52858,"ELEMENT_SET_NO":999,"REV_AT_EPOCH":20382,"BSTAR":1.1432e-5,"MEAN_MOTION_DOT":-1.06e-6,"MEAN_MOTION_DDOT":0},{"OBJECT_NAME":"STARLINK-4196","OBJECT_ID":"2022-062AF","EPOCH":"2026-02-23T12:02:57.182208","MEAN_MOTION":15.08839627,"ECCENTRICITY":0.00014282,"INCLINATION":53.2167,"RA_OF_ASC_NODE":87.8134,"ARG_OF_PERICENTER":92.1773,"MEAN_ANOMALY":267.9383,"EPHEMERIS_TYPE":0,"CLASSIFICATION_TYPE":"U","NORAD_CAT_ID":52859,"ELEMENT_SET_NO":999,"REV_AT_EPOCH":20378,"BSTAR":-7.611025e-6,"MEAN_MOTION_DOT":-4.09e-6,"MEAN_MOTION_DDOT":0},{"OBJECT_NAME":"STARLINK-4191","OBJECT_ID":"2022-062AG","EPOCH":"2026-02-23T18:35:05.447040","MEAN_MOTION":15.0885083,"ECCENTRICITY":0.0001225,"INCLINATION":53.2168,"RA_OF_ASC_NODE":86.59,"ARG_OF_PERICENTER":78.5208,"MEAN_ANOMALY":281.5922,"EPHEMERIS_TYPE":0,"CLASSIFICATION_TYPE":"U","NORAD_CAT_ID":52860,"ELEMENT_SET_NO":999,"REV_AT_EPOCH":20382,"BSTAR":-0.00018094,"MEAN_MOTION_DOT":-3.167e-5,"MEAN_MOTION_DDOT":0},{"OBJECT_NAME":"STARLINK-4112","OBJECT_ID":"2022-062AH","EPOCH":"2026-02-23T19:34:45.610752","MEAN_MOTION":15.0883623,"ECCENTRICITY":0.0001163,"INCLINATION":53.2199,"RA_OF_ASC_NODE":86.4139,"ARG_OF_PERICENTER":84.6422,"MEAN_ANOMALY":275.4703,"EPHEMERIS_TYPE":0,"CLASSIFICATION_TYPE":"U","NORAD_CAT_ID":52861,"ELEMENT_SET_NO":999,"REV_AT_EPOCH":20383,"BSTAR":1.4913e-6,"MEAN_MOTION_DOT":-2.64e-6,"MEAN_MOTION_DDOT":0}]
